IRIDIUM 166             
1 43570U 18061B   24291.47170274  .00000617  00000+0  21321-3 0  9990
2 43570  86.3935 310.7134 0002522  94.2497 265.8987 14.34217086326293
IRIDIUM 158             
1 43571U 18061C   24291.57950247  .00000595  00000+0  20551-3 0  9997
2 43571  86.3934 310.6780 0002322  94.7887 265.3574 14.34216134326284
IRIDIUM 165             
1 43572U 18061D   24291.46535335  .00000418  00000+0  14218-3 0  9990
2 43572  86.3936 310.7608 0002282  89.1057 271.0400 14.34215979326287
IRIDIUM 155             
1 43573U 18061E   24291.42728141  .00000770  00000+0  26783-3 0  9997
2 43573  86.3930 310.6755 0002398  94.8705 265.2765 14.34225954326244
IRIDIUM 163             
1 43575U 18061G   24291.87761976 -.00000211  00000+0 -82332-4 0  9996
2 43575  86.3931 310.5249 0002022  98.6285 261.5140 14.34215414326339
IRIDIUM 156             
1 43576U 18061H   24291.57317277  .00000680  00000+0  23559-3 0  9998
2 43576  86.3934 310.6592 0002565  94.1929 265.9559 14.34217550326282
IRIDIUM 164             
1 43577U 18061J   24291.48438393  .00000450  00000+0  15351-3 0  9998
2 43577  86.3933 310.7271 0002299  86.9133 273.2325 14.34217815326318
